POEM-3
1 58695U 24001B   24072.83119717  .00668898  17855-3  76273-3 0  9994
2 58695   9.6606 223.6795 0005058  38.6474 321.4104 16.07553137 11393